OBJECT_NAME,OBJECT_ID,EPOCH,MEAN_MOTION,ECCENTRICITY,INCLINATION,RA_OF_ASC_NODE,ARG_OF_PERICENTER,MEAN_ANOMALY,EPHEMERIS_TYPE,CLASSIFICATION_TYPE,NORAD_CAT_ID,ELEMENT_SET_NO,REV_AT_EPOCH,BSTAR,MEAN_MOTION_DOT,MEAN_MOTION_DDOT
PROBA-1,2001-049B,2026-06-08T04:12:59.226336,15.07455733,.0055523,97.9599,167.3939,152.0751,208.3475,0,U,26958,999,34226,.16887E-3,.2579E-4,0
CUTE-1 (CO-55),2003-031E,2026-06-07T23:24:14.155776,14.24330292,.0008926,98.6735,167.6499,205.5861,154.4877,0,U,27844,999,19036,.15786E-3,.321E-5,0
CUBESAT XI-IV (CO-57),2003-031J,2026-06-07T23:00:57.893760,14.23616071,.0008515,98.6766,167.3539,225.8669,134.1810,0,U,27848,999,19006,.14071E-3,.277E-5,0
APRIZESAT 4,2009-041D,2026-06-08T03:41:24.138240,14.83867536,.0043044,98.1412,234.2942,352.7700,7.2888,0,U,35684,999,91002,.89716E-4,.697E-5,0
APRIZESAT 3,2009-041F,2026-06-08T00:05:35.221632,14.96215729,.0062765,98.2054,311.7891,97.2528,263.5832,0,U,35686,999,91500,.13325E-3,.1495E-4,0
PROBA-2,2009-059B,2026-06-08T02:14:22.462656,14.54858700,.0012264,98.2451,342.5724,312.9339,47.0828,0,U,36037,999,88020,.61254E-4,.218E-5,0
APRIZESAT 5,2011-044E,2026-06-07T18:02:19.224096,14.81055962,.0053059,98.2452,91.5248,34.3903,326.0724,0,U,37792,999,79739,.1732E-3,.1317E-4,0
APRIZESAT 6,2011-044F,2026-06-07T17:28:54.077088,14.76902825,.0044315,98.2371,69.0347,115.4190,299.5198,0,U,37793,999,79575,.13284E-3,.893E-5,0
PROBA-V,2013-021A,2026-06-08T04:37:53.893632,14.23595079,.0004722,98.3580,138.2439,145.2119,214.9370,0,U,39159,999,67983,.52071E-4,.78E-6,0
APRIZESAT 7,2013-066A,2026-06-08T02:20:13.859232,14.91546074,.0034425,97.7704,112.4481,240.3619,119.4169,0,U,39416,999,67987,.1383E-3,.1343E-4,0
APRIZESAT 8,2013-066K,2026-06-07T19:00:37.416672,14.87634950,.0044905,97.8217,106.3913,318.3975,41.3827,0,U,39425,999,67827,.13887E-3,.1229E-4,0
BUGSAT-1 (TITA),2014-033E,2026-06-08T04:32:02.162688,15.15490840,.0027414,98.0419,251.2121,209.3407,150.6286,0,U,40014,999,65447,.35002E-3,.6614E-4,0
SAUDISAT 4,2014-033G,2026-06-08T04:36:03.530592,14.79532398,.0046218,97.7573,305.6384,102.3417,258.2975,0,U,40016,999,64474,.10947E-3,.782E-5,0
APRIZESAT 9,2014-033J,2026-06-08T02:41:52.503936,14.74202917,.0065094,97.9050,292.5334,228.6690,130.8907,0,U,40018,999,64222,.11529E-3,.734E-5,0
APRIZESAT 10,2014-033K,2026-06-08T01:53:46.264416,14.70875008,.0077627,97.9639,286.2421,303.4380,55.9420,0,U,40019,999,64091,.82368E-4,.474E-5,0
TECHDEMOSAT-1 (TDS-1),2014-037H,2026-06-07T23:12:42.186816,15.13160742,.0004647,98.3815,150.2674,309.1661,50.9155,0,U,40076,999,64683,.51519E-3,.9066E-4,0
TECHNOSAT,2017-042E,2026-06-08T00:10:15.471264,15.04900003,.0018875,97.4268,317.0161,123.1352,237.1690,0,U,42829,999,48532,.23457E-3,.3273E-4,0
FLYING LAPTOP,2017-042G,2026-06-08T04:28:38.983584,15.01085919,.0019124,97.4657,315.0688,151.1196,209.1091,0,U,42831,999,48510,.25162E-3,.3173E-4,0
HAWK-A,2018-099H,2026-06-08T00:40:34.912704,15.24536500,.0033559,97.3915,211.3837,319.6598,40.2151,0,U,43765,999,41170,.29991E-3,.7426E-4,0
HAWK-B,2018-099AN,2026-06-08T02:30:32.529024,15.22727709,.0031227,97.3967,210.8933,338.1496,21.8406,0,U,43794,999,41165,.296E-3,.6926E-4,0
HAWK-C,2018-099AT,2026-06-07T21:27:57.434400,15.27974189,.0039235,97.3892,212.1188,320.0343,39.8010,0,U,43799,999,41249,.31201E-3,.8636E-4,0
SALSAT,2020-068K,2026-06-07T23:42:24.407136,15.29667638,.0008912,97.8853,161.4934,345.1768,14.9208,0,U,46495,999,31395,.28698E-3,.8175E-4,0
HAWK-2C,2021-006CT,2026-06-08T00:33:49.474656,15.34554187,.000566,97.2283,203.5168,220.5779,139.5044,0,U,47502,999,29809,.2114E-3,.7002E-4,0
HAWK-2A,2021-006CW,2026-06-08T00:37:32.619072,15.34568999,.0005099,97.2324,204.1917,224.9270,135.1561,0,U,47505,999,29809,.20837E-3,.6903E-4,0
HAWK-2B,2021-006CZ,2026-06-08T00:31:48.544896,15.34642978,.0005642,97.2194,202.5343,222.6102,137.4704,0,U,47508,999,29809,.23871E-3,.794E-4,0
HAWK-3B,2021-059BE,2026-06-08T00:20:03.554592,15.68782139,.0003925,97.6670,354.8600,14.1297,346.0073,0,U,48931,999,27641,.39028E-3,.44596E-3,0
HAWK-3C,2021-059BX,2026-06-07T12:04:46.446240,15.68742614,.0004427,97.6800,359.9702,15.4043,344.7352,0,U,48948,999,27633,.35937E-3,.40974E-3,0
HAWK-3A,2021-059CG,2026-06-08T00:19:27.306336,15.68782111,.0004378,97.6737,357.7419,16.2021,343.9378,0,U,48957,999,27641,.37474E-3,.4281E-3,0
HAWK-5C,2022-057Y,2026-06-07T22:46:01.162848,15.51066354,.0005407,97.6588,318.0232,110.2947,249.8885,0,U,52754,999,22491,.339E-3,.19657E-3,0
HAWK-5B,2022-057AA,2026-06-07T22:45:48.455136,15.51066311,.0006029,97.6598,316.3718,102.9986,257.1938,0,U,52756,999,22491,.34305E-3,.19897E-3,0
HAWK-5A,2022-057AB,2026-06-07T22:45:28.832832,15.51062161,.0005986,97.6599,317.2031,106.6702,253.5207,0,U,52757,999,22491,.33294E-3,.19303E-3,0
